1 27424U 02022A   12094.45208036  .00000576  00000-0  13795-3 0  2651
2 27424 098.2278 036.0980 0001275 090.0334 270.1000 14.57094214527480